ONEWEB-0029             
1 45445U 20020X   25197.61639199  .00000433  00000+0  11854-2 0  9994
2 45445  87.8830  87.9453 0001914  82.2594 277.8752 13.11415175258674
ONEWEB-0068             
1 45446U 20020Y   25197.60015100  .00000426  00000+0  11647-2 0  9996
2 45446  87.8830  87.9372 0001928  82.9368 277.1980 13.11417257258619
ONEWEB-0046             
1 45447U 20020Z   25197.43919806  .00000146  00000+0  37593-3 0  9992
2 45447  87.8832  87.9793 0001663  84.2178 275.9140 13.11419771258605
ONEWEB-0063             
1 45448U 20020AA  25197.62062573  .00000212  00000+0  56205-3 0  9999
2 45448  87.8824  87.9413 0001615  77.0147 283.1161 13.11414432258714
ONEWEB-0019             
1 45449U 20020AB  25197.59434744  .00000257  00000+0  68787-3 0  9996
2 45449  87.8830  87.9645 0001943  77.7075 282.4270 13.11418528258555
ONEWEB-0094             
1 45450U 20020AC  25197.56745626  .00000033  00000+0  50511-4 0  9998
2 45450  87.9049  72.6436 0001775  83.0733 277.0600 13.17649224262112
ONEWEB-0087             
1 45451U 20020AD  25197.63065689 -.00000171  00000+0 -51830-3 0  9990
2 45451  87.8818  87.8910 0001900  85.7104 274.4241 13.11413823258601
ONEWEB-0082             
1 45452U 20020AE  25197.62740286  .00000006  00000+0 -18213-4 0  9998
2 45452  87.8823  87.9155 0002015  81.1250 279.0106 13.11415716258693
ONEWEB-0050             
1 45453U 20020AF  25197.51554307  .00002357  00000+0  23728-3 0  9990
2 45453  87.9986 287.9185 0005197  97.6289 262.5530 14.90787487290406
ONEWEB-0034             
1 45454U 20020AG  25197.41970147 -.00000509  00000+0 -14717-2 0  9990
2 45454  87.8831  87.9766 0001858  77.8463 282.2873 13.11417026258585
ONEWEB-0060             
1 45455U 20020AH  25197.61739655  .00000360  00000+0  98346-3 0  9994
2 45455  87.8827  87.9659 0001718  77.3435 282.7885 13.11148834258565
ONEWEB-0086             
1 45456U 20020AJ  25197.44598322  .00000382  00000+0  10423-2 0  9993
2 45456  87.8827  87.9693 0001959  89.3551 270.7801 13.11419947258609
ONEWEB-0088             
1 45457U 20020AK  25197.42393530 -.00000614  00000+0 -17670-2 0  9997
2 45457  87.8820  87.9219 0001793  80.9830 279.1501 13.11417806258534
ONEWEB-0102             
1 47258U 20100A   25197.61500772  .00000151  00000+0  38470-3 0  9992
2 47258  87.8857  57.4110 0001774  77.3216 282.8110 13.12442750220717
ONEWEB-0109             
1 47259U 20100B   25197.62311618 -.00000118  00000+0 -36260-3 0  9993
2 47259  87.8859  57.3788 0001836  78.9350 281.1985 13.12442514220546
ONEWEB-0110             
1 47260U 20100C   25197.57283604 -.00000264  00000+0 -77021-3 0  9994
2 47260  87.8858  57.3714 0002051  84.5551 275.5811 13.12443278220703
ONEWEB-0111             
1 47261U 20100D   25197.60365742  .00000412  00000+0  11098-2 0  9997
2 47261  87.8858  57.3812 0001755  81.1996 278.9331 13.12443615220540
ONEWEB-0114             
1 47262U 20100E   25197.63449768 -.00000382  00000+0 -10981-2 0  9990
2 47262  87.8852  57.3739 0001720  73.1725 286.9592 13.12446438220506
ONEWEB-0117             
1 47263U 20100F   25197.62636151 -.00000254  00000+0 -74223-3 0  9992
2 47263  87.8860  57.3679 0001794  83.3445 276.7888 13.12440712220517
ONEWEB-0118             
1 47264U 20100G   25197.58256905  .00000067  00000+0  15098-3 0  9998
2 47264  87.8858  57.3776 0001449  76.7529 283.3761 13.12444741220700
ONEWEB-0119             
1 47265U 20100H   25197.61015018  .00000314  00000+0  83615-3 0  9996
2 47265  87.8857  57.4112 0001837  82.2288 277.9049 13.12441414220689
ONEWEB-0120             
1 47266U 20100J   25197.63298272 -.00000401  00000+0 -11515-2 0  9992
2 47266  87.8869  57.4024 0001749  77.7950 282.3374 13.12441000220718
ONEWEB-0121             
1 47267U 20100K   25197.62150407 -.00000096  00000+0 -30209-3 0  9991
2 47267  87.8859  57.3752 0001875  83.6716 276.4626 13.12438875220621
ONEWEB-0122             
1 47268U 20100L   25197.61649782  .00000103  00000+0  25053-3 0  9998
2 47268  87.8853  57.3810 0001913  79.5140 280.6204 13.12440856220530
ONEWEB-0123             
1 47269U 20100M   25197.61177070  .00000267  00000+0  70751-3 0  9991
2 47269  87.8856  57.4093 0001678  82.0516 278.0803 13.12440872220671
ONEWEB-0124             
1 47270U 20100N   25197.60040874  .00000440  00000+0  11887-2 0  9990
2 47270  87.8858  57.4099 0001848  88.7886 271.3454 13.12444333220554
ONEWEB-0125             
1 47271U 20100P   25197.57769621 -.00000086  00000+0 -27394-3 0  9994
2 47271  87.8864  57.3777 0001580  90.1760 269.9549 13.12444778220613
ONEWEB-0126             
1 47272U 20100Q   25197.59894073  .00000442  00000+0  11924-2 0  9992
2 47272  87.8876  57.3895 0001773  79.5521 280.5807 13.12442560220688
ONEWEB-0127             
1 47273U 20100R   25197.56471725 -.00000555  00000+0 -15779-2 0  9994
2 47273  87.8865  57.4129 0001827  77.9033 282.2300 13.12442059220701
ONEWEB-0128             
1 47274U 20100S   25197.58742945  .00000236  00000+0  62119-3 0  9997
2 47274  87.8864  57.4356 0002029  80.8778 279.2580 13.12445121220728
ONEWEB-0129             
1 47275U 20100T   25197.56634152 -.00000561  00000+0 -15949-2 0  9997
2 47275  87.8861  57.3828 0001983  45.7385 314.3906 13.12442597220650
ONEWEB-0130             
1 47276U 20100U   25197.59394312  .00001870  00000+0  51614-2 0  9993
2 47276  87.8857  57.3781 0001928  80.8888 279.2459 13.12437396220621
ONEWEB-0131             
1 47277U 20100V   25197.59068693  .00000283  00000+0  75155-3 0  9998
2 47277  87.8859  57.4051 0001888  83.2456 276.8887 13.12444227220661
ONEWEB-0132             
1 47278U 20100W   25197.61987613  .00000002  00000+0 -28747-4 0  9990
2 47278  87.8866  57.4008 0001816  89.8055 270.3282 13.12440854220569
ONEWEB-0133             
1 47279U 20100X   25197.63595373 -.00000458  00000+0 -13082-2 0  9991
2 47279  87.8853  57.3738 0001939  83.6706 276.4643 13.12441868220728
ONEWEB-0134             
1 47280U 20100Y   25197.60527723  .00000413  00000+0  11125-2 0  9999
2 47280  87.8852  57.3635 0001980  77.4165 282.7185 13.12443578220698
ONEWEB-0135             
1 47281U 20100Z   25197.57607481 -.00000396  00000+0 -11366-2 0  9995
2 47281  87.8858  57.4078 0002253  79.2371 280.9011 13.12443527220715
ONEWEB-0136             
1 47282U 20100AA  25197.59554347  .00000349  00000+0  93577-3 0  9991
2 47282  87.8859  57.3709 0002098  72.9206 287.2152 13.12444530220644
ONEWEB-0137             
1 47283U 20100AB  25197.62960224 -.00000269  00000+0 -78281-3 0  9999
2 47283  87.8860  57.3709 0001596  80.7889 279.3420 13.12441025220559
ONEWEB-0138             
1 47284U 20100AC  25197.60852140  .00000351  00000+0  94054-3 0  9991
2 47284  87.8853  57.3862 0001839  79.7860 280.3476 13.12443376220632
ONEWEB-0139             
1 47285U 20100AD  25197.57134609 -.00000514  00000+0 -14652-2 0  9999
2 47285  87.8859  57.3863 0001793  82.5438 277.5894 13.12443713220707
ONEWEB-0140             
1 47286U 20100AE  25197.60203237  .00000422  00000+0  11364-2 0  9991
2 47286  87.8853  57.3646 0001849  79.7837 280.3500 13.12443674220672
ONEWEB-0141             
1 47287U 20100AF  25197.57106996 -.00000546  00000+0 -15539-2 0  9999
2 47287  87.8854  57.3885 0001436  80.2938 279.8353 13.12443358220656
ONEWEB-0142             
1 47288U 20100AG  25197.63622917 -.00000407  00000+0 -11665-2 0  9995
2 47288  87.8873  57.3823 0001610  74.2500 285.8806 13.12443539220653
ONEWEB-0143             
1 47289U 20100AH  25197.56958164 -.00000403  00000+0 -11546-2 0  9998
2 47289  87.8862  57.3945 0001796  83.5334 276.5999 13.12442075220621
ONEWEB-0144             
1 47290U 20100AJ  25197.61825204  .00000046  00000+0  91818-4 0  9997
2 47290  87.8856  57.3657 0001731  73.0743 287.0575 13.12442498220551
ONEWEB-0145             
1 47291U 20100AK  25197.58905940  .00000229  00000+0  60074-3 0  9992
2 47291  87.8861  57.3973 0001801  79.4321 280.7011 13.12444060220742
ONEWEB-0146             
1 47292U 20100AL  25197.58580896  .00000232  00000+0  60964-3 0  9994
2 47292  87.8862  57.3849 0001908  93.4555 266.6792 13.12445084220655
ONEWEB-0147             
1 47293U 20100AM  25197.62798215 -.00000269  00000+0 -78409-3 0  9991
2 47293  87.8859  57.3557 0002033  77.6852 282.4504 13.12440641220552
ONEWEB-0115             
1 48042U 21025A   25197.53722901 -.00000032  00000+0 -12251-3 0  9991
2 48042  87.8949  26.9004 0001809  90.4120 269.7216 13.13470340209538
ONEWEB-0152             
1 48043U 21025B   25197.55076489 -.00000299  00000+0 -85314-3 0  9992
2 48043  87.8953  26.9118 0001899  91.5799 268.5548 13.13470895209498
ONEWEB-0153             
1 48044U 21025C   25197.52876781  .00000202  00000+0  51940-3 0  9993
2 48044  87.8957  26.9143 0001763  88.1656 271.9675 13.13470584209488
ONEWEB-0154             
1 48045U 21025D   25197.60155585  .00000282  00000+0  73672-3 0  9999
2 48045  87.8953  26.8988 0001872  88.6661 271.4683 13.13470488209457
ONEWEB-0116             
1 48046U 21025E   25197.56430959 -.00000156  00000+0 -46096-3 0  9998
2 48046  87.8955  26.8863 0001896  92.6904 267.4442 13.13471297209595
ONEWEB-0150             
1 48047U 21025F   25197.54060575 -.00000112  00000+0 -34261-3 0  9993
2 48047  87.8951  26.8873 0001614  90.1211 270.0103 13.13468247209488
ONEWEB-0107             
1 48048U 21025G   25197.54229929 -.00000138  00000+0 -41159-3 0  9996
2 48048  87.8954  26.8849 0001735  79.0469 281.0855 13.13468546209466
ONEWEB-0101             
1 48049U 21025H   25197.58124784  .00000154  00000+0  38781-3 0  9997
2 48049  87.8954  26.9162 0001868  84.1654 275.9688 13.13470580209441
ONEWEB-0113             
1 48050U 21025J   25197.57917342  .00000059  00000+0  12457-3 0  9994
2 48050  87.8953  26.8680 0001764  93.0531 267.0800 13.13975166209532
ONEWEB-0112             
1 48051U 21025K   25197.54738144 -.00000238  00000+0 -68680-3 0  9993
2 48051  87.8950  26.8805 0001699  89.4152 270.7172 13.13470673209530
